IRIDIUM 921             
1 24873U 97034E   24160.80303922  .00040521  00000+0  10471-2 0  9993
2 24873  86.3805 292.2639 0002589 270.5482  89.5474 15.38947648474176
IRIDIUM 26              
1 24903U 97043A   24160.55133946  .00000822  00000+0  27425-3 0  9994
2 24903  86.3955 267.3771 0002004  96.1436 263.9989 14.36391360403092
IRIDIUM 22              
1 24907U 97043E   24160.60032126  .00000811  00000+0  27674-3 0  9996
2 24907  86.3956 270.5878 0002205  93.5393 266.6056 14.35280090403166
DUMMY MASS 1            
1 24925U 97048A   24160.84436390  .00000858  00000+0  94483-4 0  9992
2 24925  86.3328 307.8452 0008231  44.3847 315.8035 14.86234015449902
DUMMY MASS 2            
1 24926U 97048B   24160.87963747  .00000867  00000+0  96041-4 0  9999
2 24926  86.3329 309.3710 0009338  52.0896 308.1171 14.85992127449693
IRIDIUM 29              
1 24944U 97051A   24160.74526578  .00000834  00000+0  28203-3 0  9994
2 24944  86.3938 300.4443 0002299  87.3682 272.7777 14.35727884399892
IRIDIUM 33              
1 24946U 97051C   24160.62455216  .00000666  00000+0  23003-3 0  9999
2 24946  86.3855 299.7467 0006876 203.1255 156.9633 14.34381047399189
IRIDIUM 28              
1 24948U 97051E   24160.61547206  .00000895  00000+0  29738-3 0  9996
2 24948  86.3945 298.2266 0001851 101.0521 259.0884 14.36681161400191
